$$SOE
2459580.500000000, A.D. 2022-Jan-01 00:00:00.0000, -2.032215988699259E+08, 1.283407617254195E+08, 8.925155551094960E+07,
2459587.500000000, A.D. 2022-Jan-08 00:00:00.0000, -2.119828415422258E+08, 1.171295047764891E+08, 8.751478510223925E+07,
2459594.500000000, A.D. 2022-Jan-15 00:00:00.0000, -2.201417428613321E+08, 1.055853062601159E+08, 8.552929265801057E+07,
2459601.500000000, A.D. 2022-Jan-22 00:00:00.0000, -2.276836515359413E+08, 9.374506567642695E+07, 8.330403685572332E+07,
2459608.500000000, A.D. 2022-Jan-29 00:00:00.0000, -2.345964823315840E+08, 8.164570201732621E+07, 8.084856880915320E+07,
2459615.500000000, A.D. 2022-Feb-05 00:00:00.0000, -2.408706508516996E+08, 6.932396435448335E+07, 7.817295389072378E+07,
2459622.500000000, A.D. 2022-Feb-12 00:00:00.0000, -2.464989906269027E+08, 5.681625724731076E+07, 7.528769502819015E+07,
2459629.500000000, A.D. 2022-Feb-19 00:00:00.0000, -2.514766563962276E+08, 4.415848403592354E+07, 7.220365858906148E+07,
2459636.500000000, A.D. 2022-Feb-26 00:00:00.0000, -2.558010174085006E+08, 3.138590759283891E+07, 6.893200357774827E+07,
2459643.500000000, A.D. 2022-Mar-05 00:00:00.0000, -2.594715429971008E+08, 1.853302787117287E+07, 6.548411461923283E+07,
2459650.500000000, A.D. 2022-Mar-12 00:00:00.0000, -2.624896824767292E+08, 5.633475843484484E+06, 6.187153912487812E+07,
2459657.500000000, A.D. 2022-Mar-19 00:00:00.0000, -2.648587413941626E+08, -7.280076704876523E+06, 5.810592894266042E+07,
2459664.500000000, A.D. 2022-Mar-26 00:00:00.0000, -2.665837560017924E+08, -2.017599226997440E+07, 5.419898667081060E+07,
2459671.500000000, A.D. 2022-Apr-02 00:00:00.0000, -2.676713675364071E+08, -3.302372855264033E+07, 5.016241668689108E+07,
2459678.500000000, A.D. 2022-Apr-09 00:00:00.0000, -2.681296974435721E+08, -4.579388621786256E+07, 4.600788083961109E+07,
2459685.500000000, A.D. 2022-Apr-16 00:00:00.0000, -2.679682243863078E+08, -5.845824393482159E+07, 4.174695873461379E+07,
2459692.500000000, A.D. 2022-Apr-23 00:00:00.0000, -2.671976653083786E+08, -7.098978075364091E+07, 3.739111268515201E+07,
2459699.500000000, A.D. 2022-Apr-30 00:00:00.0000, -2.658298632483906E+08, -8.336268920797260E+07, 3.295165714191695E+07,
2459706.500000000, A.D. 2022-May-07 00:00:00.0000, -2.638776795047619E+08, -9.555238223438627E+07, 2.843973194752154E+07,
2459713.500000000, A.D. 2022-May-14 00:00:00.0000, -2.613548892576642E+08, -1.075354919384206E+08, 2.386627928867781E+07,
2459720.500000000, A.D. 2022-May-21 00:00:00.0000, -2.582760830087130E+08, -1.192898604632513E+08, 1.924202432049834E+07,
2459727.500000000, A.D. 2022-May-28 00:00:00.0000, -2.546565745107279E+08, -1.307945248876072E+08, 1.457745914336989E+07,
2459734.500000000, A.D. 2022-Jun-04 00:00:00.0000, -2.505123150044654E+08, -1.420296973776615E+08, 9.882829796793878E+06,
2459741.500000000, A.D. 2022-Jun-11 00:00:00.0000, -2.458598136257304E+08, -1.529767414286013E+08, 5.168125977493040E+06,
2459748.500000000, A.D. 2022-Jun-18 00:00:00.0000, -2.407160638717950E+08, -1.636181449439206E+08, 4.430732070838511E+05,
2459755.500000000, A.D. 2022-Jun-25 00:00:00.0000, -2.350984759601215E+08, -1.739374908750710E+08, -4.282872817779273E+06,
2459762.500000000, A.D. 2022-Jul-02 00:00:00.0000, -2.290248147588922E+08, -1.839194261068214E+08, -9.000529959110484E+06,
2459769.500000000, A.D. 2022-Jul-09 00:00:00.0000, -2.225131426757270E+08, -1.935496289625767E+08, -1.370099171065973E+07,
2459776.500000000, A.D. 2022-Jul-16 00:00:00.0000, -2.155817673081579E+08, -2.028147747320701E+08, -1.837562773553234E+07,
2459783.500000000, A.D. 2022-Jul-23 00:00:00.0000, -2.082491957810789E+08, -2.117024995674434E+08, -2.301608286312762E+07,
2459790.500000000, A.D. 2022-Jul-30 00:00:00.0000, -2.005340954019292E+08, -2.202013664725631E+08, -2.761427501441324E+07,
2459797.500000000, A.D. 2022-Aug-06 00:00:00.0000, -1.924552567483003E+08, -2.283008330602568E+08, -3.216239250504515E+07,
2459804.500000000, A.D. 2022-Aug-13 00:00:00.0000, -1.840315597244118E+08, -2.359912185955997E+08, -3.665289058294368E+07,
2459811.500000000, A.D. 2022-Aug-20 00:00:00.0000, -1.752819438685815E+08, -2.432636710542573E+08, -4.107848723935959E+07,
2459818.500000000, A.D. 2022-Aug-27 00:00:00.0000, -1.662253825584332E+08, -2.501101351086309E+08, -4.543215848605646E+07,
2459825.500000000, A.D. 2022-Sep-03 00:00:00.0000, -1.568808605864654E+08, -2.565233213082961E+08, -4.970713324444020E+07,
2459832.500000000, A.D. 2022-Sep-10 00:00:00.0000, -1.472673547488594E+08, -2.624966765625956E+08, -5.389688795644851E+07,
2459839.500000000, A.D. 2022-Sep-17 00:00:00.0000, -1.374038171665457E+08, -2.680243560335762E+08, -5.799514101334526E+07,
2459846.500000000, A.D. 2022-Sep-24 00:00:00.0000, -1.273091610389206E+08, -2.731011965712882E+08, -6.199584709479010E+07,
2459853.500000000, A.D. 2022-Oct-01 00:00:00.0000, -1.170022483616943E+08, -2.777226917742932E+08, -6.589319151495489E+07,
2459860.500000000, A.D. 2022-Oct-08 00:00:00.0000, -1.065018789847662E+08, -2.818849681976918E+08, -6.968158463496588E+07,
2459867.500000000, A.D. 2022-Oct-15 00:00:00.0000, -9.582678173734677E+07, -2.855847615394454E+08, -7.335565621511577E+07,
2459874.500000000, A.D. 2022-Oct-22 00:00:00.0000, -8.499560960790345E+07, -2.888193945062085E+08, -7.691024969425470E+07,
2459881.500000000, A.D. 2022-Oct-29 00:00:00.0000, -7.402693629805030E+07, -2.915867589632261E+08, -8.034041688293791E+07,
2459888.500000000, A.D. 2022-Nov-05 00:00:00.0000, -6.293925188237213E+07, -2.938852996346097E+08, -8.364141308166051E+07,
2459895.500000000, A.D. 2022-Nov-12 00:00:00.0000, -5.175095938402840E+07, -2.957139980861822E+08, -8.680869237882279E+07,
2459902.500000000, A.D. 2022-Nov-19 00:00:00.0000, -4.048037284229110E+07, -2.970723579354807E+08, -8.983790317324597E+07,
2459909.500000000, A.D. 2022-Nov-26 00:00:00.0000, -2.914571647714015E+07, -2.979603916679233E+08, -9.272488400330925E+07,
2459916.500000000, A.D. 2022-Dec-03 00:00:00.0000, -1.776512465755045E+07, -2.983786090436407E+08, -9.546565971559595E+07,
2459923.500000000, A.D. 2022-Dec-10 00:00:00.0000, -6.356642498783534E+06, -2.983280070464392E+08, -9.805643798728192E+07,
2459930.500000000, A.D. 2022-Dec-17 00:00:00.0000, 5.061773066496887E+06, -2.978100613771831E+08, -1.004936062218291E+08,
2459937.500000000, A.D. 2022-Dec-24 00:00:00.0000, 1.647225197509377E+07, -2.968267195446389E+08, -1.027737288568040E+08,
2459944.500000000, A.D. 2022-Dec-31 00:00:00.0000, 2.785700994404557E+07, -2.953803954363918E+08, -1.048935451348465E+08,
2459951.500000000, A.D. 2023-Jan-07 00:00:00.0000, 3.919834782508568E+07, -2.934739643932862E+08, -1.068499672941567E+08,
2459958.500000000, A.D. 2023-Jan-14 00:00:00.0000, 5.047864952810299E+07, -2.911107582694260E+08, -1.086400789747632E+08,
2459965.500000000, A.D. 2023-Jan-21 00:00:00.0000, 6.168037796227655E+07, -2.882945636235646E+08, -1.102611340527765E+08,
2459972.500000000, A.D. 2023-Jan-28 00:00:00.0000, 7.278607275958170E+07, -2.850296232118423E+08, -1.117105562670505E+08,
2459979.500000000, A.D. 2023-Feb-04 00:00:00.0000, 8.377834966894506E+07, -2.813206377328544E+08, -1.129859393858522E+08,
2459986.500000000, A.D. 2023-Feb-11 00:00:00.0000, 9.463989992171249E+07, -2.771727679974980E+08, -1.140850477790289E+08,
2459993.500000000, A.D. 2023-Feb-18 00:00:00.0000, 1.053534896018989E+08, -2.725916383245258E+08, -1.150058174714006E+08,
2460000.500000000, A.D. 2023-Feb-25 00:00:00.0000, 1.159019593822665E+08, -2.675833413010539E+08, -1.157463577294250E+08,
2460007.500000000, A.D. 2023-Mar-04 00:00:00.0000, 1.262682248281032E+08, -2.621544438659161E+08, -1.163049532037454E+08,
2460014.500000000, A.D. 2023-Mar-11 00:00:00.0000, 1.364352773990962E+08, -2.563119946894379E+08, -1.166800666439428E+08,
2460021.500000000, A.D. 2023-Mar-18 00:00:00.0000, 1.463861863031223E+08, -2.500635328692001E+08, -1.168703422069105E+08,
2460028.500000000, A.D. 2023-Mar-25 00:00:00.0000, 1.561041015194810E+08, -2.434170979573347E+08, -1.168746093965811E+08,
2460035.500000000, A.D. 2023-Apr-01 00:00:00.0000, 1.655722585356675E+08, -2.363812408951271E+08, -1.166918876601147E+08,
2460042.500000000, A.D. 2023-Apr-08 00:00:00.0000, 1.747739843043404E+08, -2.289650345970624E+08, -1.163213915019773E+08,
2460049.500000000, A.D. 2023-Apr-15 00:00:00.0000, 1.836927022086112E+08, -2.211780852492180E+08, -1.157625360061649E+08,
2460056.500000000, A.D. 2023-Apr-22 00:00:00.0000, 1.923119379770074E+08, -2.130305473210466E+08, -1.150149431929682E+08,
2460063.500000000, A.D. 2023-Apr-29 00:00:00.0000, 2.006153294261529E+08, -2.045331399776221E+08, -1.140784492892662E+08,
2460070.500000000, A.D. 2023-May-06 00:00:00.0000, 2.085866384224852E+08, -1.956971630458750E+08, -1.129531126188020E+08,
2460077.500000000, A.D. 2023-May-13 00:00:00.0000, 2.162097642440368E+08, -1.865345133527933E+08, -1.116392221072410E+08,
2460084.500000000, A.D. 2023-May-20 00:00:00.0000, 2.234687587414878E+08, -1.770577018376810E+08, -1.101373064719906E+08,
2460091.500000000, A.D. 2023-May-27 00:00:00.0000, 2.303478436651141E+08, -1.672798713642377E+08, -1.084481441223425E+08,
2460098.500000000, A.D. 2023-Jun-03 00:00:00.0000, 2.368314303962140E+08, -1.572148150868553E+08, -1.065727737751148E+08,
2460105.500000000, A.D. 2023-Jun-10 00:00:00.0000, 2.429041422940542E+08, -1.468769952476248E+08, -1.045125057863654E+08,
2460112.500000000, A.D. 2023-Jun-17 00:00:00.0000, 2.485508399379666E+08, -1.362815623052155E+08, -1.022689342019277E+08,
2460119.500000000, A.D. 2023-Jun-24 00:00:00.0000, 2.537566497793347E+08, -1.254443741525543E+08, -9.984394953245814E+07,
2460126.500000000, A.D. 2023-Jul-01 00:00:00.0000, 2.585069966620979E+08, -1.143820143796910E+08, -9.723975218535140E+07,
2460133.500000000, A.D. 2023-Jul-08 00:00:00.0000, 2.627876387499721E+08, -1.031118085240673E+08, -9.445886630561051E+07,
2460140.500000000, A.D. 2023-Jul-15 00:00:00.0000, 2.665847037868017E+08, -9.165184087378876E+07, -9.150415409762341E+07,
$$EOE